GAOFEN-1                
1 39150U 13018A   26204.86092376  .00000314  00000+0  52236-4 0  9995
2 39150  97.9079 276.1797 0017775 143.9740 216.2671 14.76525260713650
FENGYUN 3C              
1 39260U 13052A   26204.86461207  .00000058  00000+0  50829-4 0  9999
2 39260  98.5015 177.0606 0013444 278.9526  81.0126 14.15762233663751
FENGYUN 4A              
1 41882U 16077A   26204.85069178 -.00000355  00000+0  00000+0 0  9994
2 41882   2.4132  79.8624 0008025 158.5716 132.9767  1.00264567 35296
FORMOSAT-5              
1 42920U 17049A   26204.81019921  .00000111  00000+0  39269-4 0  9998
2 42920  98.2240 279.3040 0010817 336.5401  23.5299 14.50894505471988
FENGYUN 3D              
1 43010U 17072A   26204.86463448 -.00000173  00000+0 -59980-4 0  9999
2 43010  99.0154 179.9540 0000994 356.4747   3.6422 14.19744823450190
GAOFEN-1 02             
1 43259U 18031A   26204.82688338  .00000716  00000+0  11027-3 0  9993
2 43259  98.0508 267.2476 0001601 231.0158 129.0909 14.76480812448105
FENGYUN 3E              
1 49008U 21062A   26204.84446164  .00000210  00000+0  11961-3 0  9996
2 49008  98.7514 207.8452 0001796  24.7438 335.3824 14.19907416261780
FENGYUN 3G              
1 56232U 23055A   26204.90088942  .00026880  00000+0  41117-3 0  9997
2 56232  49.9911 156.6292 0006801  98.0148 262.1592 15.54111589185718
FENGYUN 3F              
1 57490U 23111A   26204.82748892  .00000018  00000+0  28776-4 0  9997
2 57490  98.6820 274.1502 0001108  75.0063 285.1236 14.19944462154069
FENGYUN 3H              
1 65815U 25219A   26204.33108601  .00000025  00000+0  32075-4 0  9997
2 65815  98.6770 144.3987 0000966  63.6430 296.4846 14.19925773 42512
