{
 "generated_at": "2026-07-24T07:31:19Z",
 "sources": [
  {
   "name": "CelesTrak",
   "url": "https://celestrak.org/NORAD/elements/",
   "license": "frei verfügbar; Attribution. Ursprünglich USSPACECOM/Space-Track."
  },
  {
   "name": "GCAT (J. McDowell, planet4589.org)",
   "url": "https://planet4589.org/space/gcat/",
   "license": "CC-BY 4.0"
  }
 ],
 "satellites": [
  {
   "norad": 39260,
   "name": "FENGYUN 3C",
   "intl": "2013-052A",
   "group": "weather",
   "gcat": {
    "class": "C",
    "category": "MET",
    "owner": "NSMC",
    "state": "CN"
   },
   "omm": {
    "OBJECT_NAME": "FENGYUN 3C",
    "OBJECT_ID": "2013-052A",
    "EPOCH": "2026-07-23T20:45:02.482848",
    "MEAN_MOTION": 14.15762233,
    "ECCENTRICITY": 0.0013444,
    "INCLINATION": 98.5015,
    "RA_OF_ASC_NODE": 177.0606,
    "ARG_OF_PERICENTER": 278.9526,
    "MEAN_ANOMALY": 81.0126,
    "EPHEMERIS_TYPE": 0,
    "CLASSIFICATION_TYPE": "U",
    "NORAD_CAT_ID": 39260,
    "ELEMENT_SET_NO": 999,
    "REV_AT_EPOCH": 66375,
    "BSTAR": 0.000050829,
    "MEAN_MOTION_DOT": 5.8e-7,
    "MEAN_MOTION_DDOT": 0
   }
  },
  {
   "norad": 43010,
   "name": "FENGYUN 3D",
   "intl": "2017-072A",
   "group": "weather",
   "gcat": {
    "class": "C",
    "category": "MET",
    "owner": "NSMC",
    "state": "CN"
   },
   "omm": {
    "OBJECT_NAME": "FENGYUN 3D",
    "OBJECT_ID": "2017-072A",
    "EPOCH": "2026-07-23T20:45:04.419072",
    "MEAN_MOTION": 14.19744823,
    "ECCENTRICITY": 0.0000994,
    "INCLINATION": 99.0154,
    "RA_OF_ASC_NODE": 179.954,
    "ARG_OF_PERICENTER": 356.4747,
    "MEAN_ANOMALY": 3.6422,
    "EPHEMERIS_TYPE": 0,
    "CLASSIFICATION_TYPE": "U",
    "NORAD_CAT_ID": 43010,
    "ELEMENT_SET_NO": 999,
    "REV_AT_EPOCH": 45019,
    "BSTAR": -0.00005998,
    "MEAN_MOTION_DOT": -0.00000173,
    "MEAN_MOTION_DDOT": 0
   }
  },
  {
   "norad": 49008,
   "name": "FENGYUN 3E",
   "intl": "2021-062A",
   "group": "weather",
   "gcat": {
    "class": "C",
    "category": "MET",
    "owner": "NSMC",
    "state": "CN"
   },
   "omm": {
    "OBJECT_NAME": "FENGYUN 3E",
    "OBJECT_ID": "2021-062A",
    "EPOCH": "2026-07-23T20:16:01.485696",
    "MEAN_MOTION": 14.19907416,
    "ECCENTRICITY": 0.0001796,
    "INCLINATION": 98.7514,
    "RA_OF_ASC_NODE": 207.8452,
    "ARG_OF_PERICENTER": 24.7438,
    "MEAN_ANOMALY": 335.3824,
    "EPHEMERIS_TYPE": 0,
    "CLASSIFICATION_TYPE": "U",
    "NORAD_CAT_ID": 49008,
    "ELEMENT_SET_NO": 999,
    "REV_AT_EPOCH": 26178,
    "BSTAR": 0.00011961,
    "MEAN_MOTION_DOT": 0.0000021,
    "MEAN_MOTION_DDOT": 0
   }
  },
  {
   "norad": 57490,
   "name": "FENGYUN 3F",
   "intl": "2023-111A",
   "group": "weather",
   "gcat": {
    "class": "C",
    "category": "MET",
    "owner": "NSMC",
    "state": "CN"
   },
   "omm": {
    "OBJECT_NAME": "FENGYUN 3F",
    "OBJECT_ID": "2023-111A",
    "EPOCH": "2026-07-23T19:51:35.042688",
    "MEAN_MOTION": 14.19944462,
    "ECCENTRICITY": 0.0001108,
    "INCLINATION": 98.682,
    "RA_OF_ASC_NODE": 274.1502,
    "ARG_OF_PERICENTER": 75.0063,
    "MEAN_ANOMALY": 285.1236,
    "EPHEMERIS_TYPE": 0,
    "CLASSIFICATION_TYPE": "U",
    "NORAD_CAT_ID": 57490,
    "ELEMENT_SET_NO": 999,
    "REV_AT_EPOCH": 15406,
    "BSTAR": 0.000028776,
    "MEAN_MOTION_DOT": 1.8e-7,
    "MEAN_MOTION_DDOT": 0
   }
  },
  {
   "norad": 56232,
   "name": "FENGYUN 3G",
   "intl": "2023-055A",
   "group": "weather",
   "gcat": {
    "class": "C",
    "category": "MET",
    "owner": "NSMC",
    "state": "CN"
   },
   "omm": {
    "OBJECT_NAME": "FENGYUN 3G",
    "OBJECT_ID": "2023-055A",
    "EPOCH": "2026-07-23T21:37:16.845888",
    "MEAN_MOTION": 15.54111589,
    "ECCENTRICITY": 0.0006801,
    "INCLINATION": 49.9911,
    "RA_OF_ASC_NODE": 156.6292,
    "ARG_OF_PERICENTER": 98.0148,
    "MEAN_ANOMALY": 262.1592,
    "EPHEMERIS_TYPE": 0,
    "CLASSIFICATION_TYPE": "U",
    "NORAD_CAT_ID": 56232,
    "ELEMENT_SET_NO": 999,
    "REV_AT_EPOCH": 18571,
    "BSTAR": 0.00041117,
    "MEAN_MOTION_DOT": 0.0002688,
    "MEAN_MOTION_DDOT": 0
   }
  },
  {
   "norad": 65815,
   "name": "FENGYUN 3H",
   "intl": "2025-219A",
   "group": "weather",
   "gcat": {
    "class": "C",
    "category": "MET",
    "owner": "NSMC",
    "state": "CN"
   },
   "omm": {
    "OBJECT_NAME": "FENGYUN 3H",
    "OBJECT_ID": "2025-219A",
    "EPOCH": "2026-07-23T07:56:45.831264",
    "MEAN_MOTION": 14.19925773,
    "ECCENTRICITY": 0.0000966,
    "INCLINATION": 98.677,
    "RA_OF_ASC_NODE": 144.3987,
    "ARG_OF_PERICENTER": 63.643,
    "MEAN_ANOMALY": 296.4846,
    "EPHEMERIS_TYPE": 0,
    "CLASSIFICATION_TYPE": "U",
    "NORAD_CAT_ID": 65815,
    "ELEMENT_SET_NO": 999,
    "REV_AT_EPOCH": 4251,
    "BSTAR": 0.000032075,
    "MEAN_MOTION_DOT": 2.5e-7,
    "MEAN_MOTION_DDOT": 0
   }
  },
  {
   "norad": 41882,
   "name": "FENGYUN 4A",
   "intl": "2016-077A",
   "group": "weather",
   "gcat": {
    "class": "C",
    "category": "MET",
    "owner": "NSMC",
    "state": "CN"
   },
   "omm": {
    "OBJECT_NAME": "FENGYUN 4A",
    "OBJECT_ID": "2016-077A",
    "EPOCH": "2026-07-23T20:24:59.769792",
    "MEAN_MOTION": 1.00264567,
    "ECCENTRICITY": 0.0008025,
    "INCLINATION": 2.4132,
    "RA_OF_ASC_NODE": 79.8624,
    "ARG_OF_PERICENTER": 158.5716,
    "MEAN_ANOMALY": 132.9767,
    "EPHEMERIS_TYPE": 0,
    "CLASSIFICATION_TYPE": "U",
    "NORAD_CAT_ID": 41882,
    "ELEMENT_SET_NO": 999,
    "REV_AT_EPOCH": 3529,
    "BSTAR": 0,
    "MEAN_MOTION_DOT": -0.00000355,
    "MEAN_MOTION_DDOT": 0
   }
  },
  {
   "norad": 42920,
   "name": "FORMOSAT-5",
   "intl": "2017-049A",
   "group": "resource",
   "gcat": {
    "class": "C",
    "category": "IMG/SCI",
    "owner": "NSPO",
    "state": "TW"
   },
   "omm": {
    "OBJECT_NAME": "FORMOSAT-5",
    "OBJECT_ID": "2017-049A",
    "EPOCH": "2026-07-23T19:26:41.211744",
    "MEAN_MOTION": 14.50894505,
    "ECCENTRICITY": 0.0010817,
    "INCLINATION": 98.224,
    "RA_OF_ASC_NODE": 279.304,
    "ARG_OF_PERICENTER": 336.5401,
    "MEAN_ANOMALY": 23.5299,
    "EPHEMERIS_TYPE": 0,
    "CLASSIFICATION_TYPE": "U",
    "NORAD_CAT_ID": 42920,
    "ELEMENT_SET_NO": 999,
    "REV_AT_EPOCH": 47198,
    "BSTAR": 0.000039269,
    "MEAN_MOTION_DOT": 0.00000111,
    "MEAN_MOTION_DDOT": 0
   }
  },
  {
   "norad": 39150,
   "name": "GAOFEN-1",
   "intl": "2013-018A",
   "group": "resource",
   "gcat": {
    "class": "C",
    "category": "IMG",
    "owner": "CNSAS",
    "state": "CN"
   },
   "omm": {
    "OBJECT_NAME": "GAOFEN-1",
    "OBJECT_ID": "2013-018A",
    "EPOCH": "2026-07-23T20:39:43.812864",
    "MEAN_MOTION": 14.7652526,
    "ECCENTRICITY": 0.0017775,
    "INCLINATION": 97.9079,
    "RA_OF_ASC_NODE": 276.1797,
    "ARG_OF_PERICENTER": 143.974,
    "MEAN_ANOMALY": 216.2671,
    "EPHEMERIS_TYPE": 0,
    "CLASSIFICATION_TYPE": "U",
    "NORAD_CAT_ID": 39150,
    "ELEMENT_SET_NO": 999,
    "REV_AT_EPOCH": 71365,
    "BSTAR": 0.000052236,
    "MEAN_MOTION_DOT": 0.00000314,
    "MEAN_MOTION_DDOT": 0
   }
  },
  {
   "norad": 43259,
   "name": "GAOFEN-1 02",
   "intl": "2018-031A",
   "group": "resource",
   "gcat": {
    "class": "C",
    "category": "IMG",
    "owner": "CNSAS",
    "state": "CN"
   },
   "omm": {
    "OBJECT_NAME": "GAOFEN-1 02",
    "OBJECT_ID": "2018-031A",
    "EPOCH": "2026-07-23T19:50:42.724032",
    "MEAN_MOTION": 14.76480812,
    "ECCENTRICITY": 0.0001601,
    "INCLINATION": 98.0508,
    "RA_OF_ASC_NODE": 267.2476,
    "ARG_OF_PERICENTER": 231.0158,
    "MEAN_ANOMALY": 129.0909,
    "EPHEMERIS_TYPE": 0,
    "CLASSIFICATION_TYPE": "U",
    "NORAD_CAT_ID": 43259,
    "ELEMENT_SET_NO": 999,
    "REV_AT_EPOCH": 44810,
    "BSTAR": 0.00011027,
    "MEAN_MOTION_DOT": 0.00000716,
    "MEAN_MOTION_DDOT": 0
   }
  }
 ]
}
